GSLV R/B                
1 54149U 22138AN  26171.39262727  .00001845  00000+0  15597-3 0  9991
2 54149  87.3806 131.9079 0023267 132.8603 227.4588 14.97268932199297
XRISM                   
1 57800U 23137A   26171.16040668  .00004151  00000+0  22709-3 0  9997
2 57800  31.0032 340.3423 0007922 353.3613   6.6920 15.12489019153310
ACS3                    
1 59588U 24077B   26171.36336138  .00040774  00000+0  29681-1 0  9993
2 59588  97.1691  89.4458 0082058  61.6026 299.3382 13.94333623108486
CZ-8A R/B               
1 66004U 25231K   26171.33611209 -.00000031  00000+0  47222-4 0  9996
2 66004  50.0053  25.9191 0116482 235.0958 123.8966 14.30155599 35399
SZ-21 MODULE            
1 66515U 25246C   26171.38315940  .00041738  00000+0  25384-3 0  9999
2 66515  41.4727 287.4171 0005787  13.1539 346.9456 15.76651737 34247
