[
    {
        "OBJECT_NAME": "GSLV R/B",
        "OBJECT_ID": "2022-138AN",
        "EPOCH": "2026-06-20T09:25:22.996128",
        "MEAN_MOTION": 14.97268932,
        "ECCENTRICITY": 0.0023267,
        "INCLINATION": 87.3806,
        "RA_OF_ASC_NODE": 131.9079,
        "ARG_OF_PERICENTER": 132.8603,
        "MEAN_ANOMALY": 227.4588,
        "EPHEMERIS_TYPE": 0,
        "CLASSIFICATION_TYPE": "U",
        "NORAD_CAT_ID": 54149,
        "ELEMENT_SET_NO": 999,
        "REV_AT_EPOCH": 19929,
        "BSTAR": 0.00015597,
        "MEAN_MOTION_DOT": 1.845e-05,
        "MEAN_MOTION_DDOT": 0
    },
    {
        "OBJECT_NAME": "XRISM",
        "OBJECT_ID": "2023-137A",
        "EPOCH": "2026-06-20T03:50:59.137152",
        "MEAN_MOTION": 15.12489019,
        "ECCENTRICITY": 0.00079222,
        "INCLINATION": 31.0032,
        "RA_OF_ASC_NODE": 340.3423,
        "ARG_OF_PERICENTER": 353.3613,
        "MEAN_ANOMALY": 6.692,
        "EPHEMERIS_TYPE": 0,
        "CLASSIFICATION_TYPE": "U",
        "NORAD_CAT_ID": 57800,
        "ELEMENT_SET_NO": 999,
        "REV_AT_EPOCH": 15331,
        "BSTAR": 0.00022708659,
        "MEAN_MOTION_DOT": 4.151e-05,
        "MEAN_MOTION_DDOT": 0
    },
    {
        "OBJECT_NAME": "ACS3",
        "OBJECT_ID": "2024-077B",
        "EPOCH": "2026-06-20T08:43:14.423232",
        "MEAN_MOTION": 13.94333623,
        "ECCENTRICITY": 0.0082058,
        "INCLINATION": 97.1691,
        "RA_OF_ASC_NODE": 89.4458,
        "ARG_OF_PERICENTER": 61.6026,
        "MEAN_ANOMALY": 299.3382,
        "EPHEMERIS_TYPE": 0,
        "CLASSIFICATION_TYPE": "U",
        "NORAD_CAT_ID": 59588,
        "ELEMENT_SET_NO": 999,
        "REV_AT_EPOCH": 10848,
        "BSTAR": 0.029681,
        "MEAN_MOTION_DOT": 0.00040774,
        "MEAN_MOTION_DDOT": 0
    },
    {
        "OBJECT_NAME": "CZ-8A R/B",
        "OBJECT_ID": "2025-231K",
        "EPOCH": "2026-06-20T08:04:00.084576",
        "MEAN_MOTION": 14.30155599,
        "ECCENTRICITY": 0.0116482,
        "INCLINATION": 50.0053,
        "RA_OF_ASC_NODE": 25.9191,
        "ARG_OF_PERICENTER": 235.0958,
        "MEAN_ANOMALY": 123.8966,
        "EPHEMERIS_TYPE": 0,
        "CLASSIFICATION_TYPE": "U",
        "NORAD_CAT_ID": 66004,
        "ELEMENT_SET_NO": 999,
        "REV_AT_EPOCH": 3539,
        "BSTAR": 4.7222e-05,
        "MEAN_MOTION_DOT": -3.1e-07,
        "MEAN_MOTION_DDOT": 0
    },
    {
        "OBJECT_NAME": "SZ-21 MODULE",
        "OBJECT_ID": "2025-246C",
        "EPOCH": "2026-06-20T09:11:44.972160",
        "MEAN_MOTION": 15.76651737,
        "ECCENTRICITY": 0.0005787,
        "INCLINATION": 41.4727,
        "RA_OF_ASC_NODE": 287.4171,
        "ARG_OF_PERICENTER": 13.1539,
        "MEAN_ANOMALY": 346.9456,
        "EPHEMERIS_TYPE": 0,
        "CLASSIFICATION_TYPE": "U",
        "NORAD_CAT_ID": 66515,
        "ELEMENT_SET_NO": 999,
        "REV_AT_EPOCH": 3424,
        "BSTAR": 0.00025384,
        "MEAN_MOTION_DOT": 0.00041738,
        "MEAN_MOTION_DDOT": 0
    }
]